SL-16 R/B               
1 25407U 98045B   26079.66255174  .00000036  00000+0  42266-4 0  9996
2 25407  71.0119 158.5002 0007501 350.5968   9.5014 14.16195386428657
ISS (ZARYA)             
1 25544U 98067A   26079.87218434  .00009590  00000+0  18573-3 0  9990
2 25544  51.6346  17.0785 0006366 213.2716 146.7873 15.48402839558062
CZ-4B R/B               
1 25732U 99025C   26079.55179545  .00000041  00000+0  40917-4 0  9998
2 25732  98.6604 123.5750 0036238 314.8829 218.0190 14.18267375389706
OKEAN-O                 
1 25860U 99039A   26079.39925698  .00000547  00000+0  78522-4 0  9999
2 25860  97.9419 139.1808 0000973  77.1336 282.9985 14.80351578435971
SL-16 R/B               
1 25861U 99039B   26079.43657727  .00000438  00000+0  62357-4 0  9998
2 25861  97.9943 138.5161 0013946 218.4075 141.6145 14.81745162438455
DELTA 2 R/B             
1 25876U 99041E   26079.83923384  .00000311  00000+0  89797-4 0  9993
2 25876  51.7605 256.7425 0502609  21.3188 340.7897 14.11864714364604
HELIOS 1B               
1 25977U 99064A   26079.67687872  .00001504  00000+0  17135-3 0  9992
2 25977  98.1683 342.2425 0002182  59.5120 300.6311 14.87739205686891
TERRA                   
1 25994U 99068A   26079.89975536  .00000344  00000+0  79159-4 0  9992
2 25994  97.9570 132.9050 0003319 127.5164  45.3666 14.61025678396716
SL-16 R/B               
1 26070U 00006B   26079.68083052 -.00000059  00000+0 -57105-5 0  9995
2 26070  71.0005  74.7242 0016177 172.9694 187.1659 14.15823588350118
TITAN 4B R/B            
1 26474U 00047B   26079.82747325  .00003602  00000+0  22759-3 0  9994
2 26474  67.9913   9.1895 0039244  22.2214 338.0625 15.09663383394598
ENVISAT                 
1 27386U 02009A   26079.86851770  .00000111  00000+0  49787-4 0  9994
2 27386  98.3748  33.2009 0001283  81.9691 300.1485 14.39040749260787
IDEFIX & ARIANE 42P R/B 
1 27422U 02021B   26079.75294770  .00000243  00000+0  10899-3 0  9995
2 27422  98.5883  18.2277 0012210 150.0014 210.1871 14.31033319245609
